[{"OBJECT_NAME":"STARLINK-1411","OBJECT_ID":"2020-035BB","EPOCH":"2025-11-15T20:36:06.643008","MEAN_MOTION":15.4317794,"ECCENTRICITY":0.0001944,"INCLINATION":53.0523,"RA_OF_ASC_NODE":169.5237,"ARG_OF_PERICENTER":161.2842,"MEAN_ANOMALY":198.8234,"EPHEMERIS_TYPE":0,"CLASSIFICATION_TYPE":"U","NORAD_CAT_ID":45706,"ELEMENT_SET_NO":999,"REV_AT_EPOCH":30224,"BSTAR":0.0011603,"MEAN_MOTION_DOT":0.00052192,"MEAN_MOTION_DDOT":0},{"OBJECT_NAME":"STARLINK-1423","OBJECT_ID":"2020-035BF","EPOCH":"2025-11-15T09:13:53.303808","MEAN_MOTION":15.06400702,"ECCENTRICITY":0.0001498,"INCLINATION":53.0536,"RA_OF_ASC_NODE":189.7563,"ARG_OF_PERICENTER":77.3533,"MEAN_ANOMALY":282.7623,"EPHEMERIS_TYPE":0,"CLASSIFICATION_TYPE":"U","NORAD_CAT_ID":45710,"ELEMENT_SET_NO":999,"REV_AT_EPOCH":30192,"BSTAR":0.00096097,"MEAN_MOTION_DOT":0.00014061,"MEAN_MOTION_DDOT":0},{"OBJECT_NAME":"STARLINK-1433","OBJECT_ID":"2020-035BG","EPOCH":"2025-11-14T20:03:02.136096","MEAN_MOTION":15.06384726,"ECCENTRICITY":0.0001141,"INCLINATION":53.053,"RA_OF_ASC_NODE":192.2196,"ARG_OF_PERICENTER":95.0481,"MEAN_ANOMALY":265.0638,"EPHEMERIS_TYPE":0,"CLASSIFICATION_TYPE":"U","NORAD_CAT_ID":45711,"ELEMENT_SET_NO":999,"REV_AT_EPOCH":30183,"BSTAR":0.00095891,"MEAN_MOTION_DOT":0.00014024,"MEAN_MOTION_DDOT":0},{"OBJECT_NAME":"STARLINK-1434","OBJECT_ID":"2020-035BH","EPOCH":"2025-11-15T08:49:45.147360","MEAN_MOTION":15.16379255,"ECCENTRICITY":0.0007076,"INCLINATION":53.0482,"RA_OF_ASC_NODE":184.9937,"ARG_OF_PERICENTER":106.4502,"MEAN_ANOMALY":253.7269,"EPHEMERIS_TYPE":0,"CLASSIFICATION_TYPE":"U","NORAD_CAT_ID":45712,"ELEMENT_SET_NO":999,"REV_AT_EPOCH":30199,"BSTAR":0.00042092,"MEAN_MOTION_DOT":7.971e-5,"MEAN_MOTION_DDOT":0},{"OBJECT_NAME":"STARLINK-1465","OBJECT_ID":"2020-038B","EPOCH":"2025-11-15T11:10:38.557056","MEAN_MOTION":15.06388128,"ECCENTRICITY":0.000148,"INCLINATION":53.0561,"RA_OF_ASC_NODE":29.3889,"ARG_OF_PERICENTER":117.9604,"MEAN_ANOMALY":242.1534,"EPHEMERIS_TYPE":0,"CLASSIFICATION_TYPE":"U","NORAD_CAT_ID":45731,"ELEMENT_SET_NO":999,"REV_AT_EPOCH":29897,"BSTAR":0.00032062,"MEAN_MOTION_DOT":4.496e-5,"MEAN_MOTION_DDOT":0},{"OBJECT_NAME":"STARLINK-1471","OBJECT_ID":"2020-038F","EPOCH":"2025-11-15T17:27:11.007072","MEAN_MOTION":15.417552,"ECCENTRICITY":9.97e-5,"INCLINATION":53.0511,"RA_OF_ASC_NODE":324.744,"ARG_OF_PERICENTER":69.7113,"MEAN_ANOMALY":290.3998,"EPHEMERIS_TYPE":0,"CLASSIFICATION_TYPE":"U","NORAD_CAT_ID":45735,"ELEMENT_SET_NO":999,"REV_AT_EPOCH":29991,"BSTAR":0.00058115,"MEAN_MOTION_DOT":0.00024622,"MEAN_MOTION_DDOT":0},{"OBJECT_NAME":"STARLINK-1474","OBJECT_ID":"2020-038J","EPOCH":"2025-11-15T22:00:03.998880","MEAN_MOTION":15.70037159,"ECCENTRICITY":0.0004322,"INCLINATION":53.0355,"RA_OF_ASC_NODE":278.1397,"ARG_OF_PERICENTER":51.5872,"MEAN_ANOMALY":124.0561,"EPHEMERIS_TYPE":0,"CLASSIFICATION_TYPE":"U","NORAD_CAT_ID":45738,"ELEMENT_SET_NO":999,"REV_AT_EPOCH":591,"BSTAR":0.0013691,"MEAN_MOTION_DOT":0.00171126,"MEAN_MOTION_DDOT":0},{"OBJECT_NAME":"STARLINK-1475","OBJECT_ID":"2020-038K","EPOCH":"2025-11-15T22:00:03.998880","MEAN_MOTION":15.87144582,"ECCENTRICITY":0.000682,"INCLINATION":53.0466,"RA_OF_ASC_NODE":243.1564,"ARG_OF_PERICENTER":92.1421,"MEAN_ANOMALY":104.625,"EPHEMERIS_TYPE":0,"CLASSIFICATION_TYPE":"U","NORAD_CAT_ID":45739,"ELEMENT_SET_NO":999,"REV_AT_EPOCH":598,"BSTAR":0.00091257,"MEAN_MOTION_DOT":0.00249376,"MEAN_MOTION_DDOT":0},{"OBJECT_NAME":"STARLINK-1480","OBJECT_ID":"2020-038M","EPOCH":"2025-11-15T13:55:10.176096","MEAN_MOTION":15.0641091,"ECCENTRICITY":0.0001548,"INCLINATION":53.0554,"RA_OF_ASC_NODE":28.8765,"ARG_OF_PERICENTER":84.1852,"MEAN_ANOMALY":275.9313,"EPHEMERIS_TYPE":0,"CLASSIFICATION_TYPE":"U","NORAD_CAT_ID":45741,"ELEMENT_SET_NO":999,"REV_AT_EPOCH":29900,"BSTAR":0.00090843,"MEAN_MOTION_DOT":0.00013279,"MEAN_MOTION_DDOT":0},{"OBJECT_NAME":"STARLINK-1500","OBJECT_ID":"2020-038Q","EPOCH":"2025-11-15T13:02:02.665824","MEAN_MOTION":15.28457109,"ECCENTRICITY":0.0001356,"INCLINATION":53.0408,"RA_OF_ASC_NODE":5.5393,"ARG_OF_PERICENTER":276.2148,"MEAN_ANOMALY":83.8696,"EPHEMERIS_TYPE":0,"CLASSIFICATION_TYPE":"U","NORAD_CAT_ID":45744,"ELEMENT_SET_NO":999,"REV_AT_EPOCH":29932,"BSTAR":0.00089463,"MEAN_MOTION_DOT":0.00024846,"MEAN_MOTION_DDOT":0},{"OBJECT_NAME":"STARLINK-1504","OBJECT_ID":"2020-038S","EPOCH":"2025-11-15T07:02:30.575616","MEAN_MOTION":15.41613805,"ECCENTRICITY":0.0002001,"INCLINATION":53.0289,"RA_OF_ASC_NODE":329.9093,"ARG_OF_PERICENTER":333.0209,"MEAN_ANOMALY":27.069,"EPHEMERIS_TYPE":0,"CLASSIFICATION_TYPE":"U","NORAD_CAT_ID":45746,"ELEMENT_SET_NO":999,"REV_AT_EPOCH":29979,"BSTAR":0.00054527,"MEAN_MOTION_DOT":0.00022962,"MEAN_MOTION_DDOT":0},{"OBJECT_NAME":"STARLINK-1506","OBJECT_ID":"2020-038T","EPOCH":"2025-11-15T13:29:09.526848","MEAN_MOTION":15.21902141,"ECCENTRICITY":0.0002178,"INCLINATION":53.065,"RA_OF_ASC_NODE":8.6619,"ARG_OF_PERICENTER":310.6448,"MEAN_ANOMALY":49.4359,"EPHEMERIS_TYPE":0,"CLASSIFICATION_TYPE":"U","NORAD_CAT_ID":45747,"ELEMENT_SET_NO":999,"REV_AT_EPOCH":29928,"BSTAR":0.00047167,"MEAN_MOTION_DOT":0.00010563,"MEAN_MOTION_DDOT":0},{"OBJECT_NAME":"STARLINK-1464","OBJECT_ID":"2020-038X","EPOCH":"2025-11-15T10:46:46.144416","MEAN_MOTION":15.06393294,"ECCENTRICITY":0.0001419,"INCLINATION":53.056,"RA_OF_ASC_NODE":9.4654,"ARG_OF_PERICENTER":102.3014,"MEAN_ANOMALY":257.8134,"EPHEMERIS_TYPE":0,"CLASSIFICATION_TYPE":"U","NORAD_CAT_ID":45751,"ELEMENT_SET_NO":999,"REV_AT_EPOCH":29926,"BSTAR":0.00058269,"MEAN_MOTION_DOT":8.407e-5,"MEAN_MOTION_DDOT":0},{"OBJECT_NAME":"STARLINK-1477","OBJECT_ID":"2020-038AA","EPOCH":"2025-11-15T12:32:15.290016","MEAN_MOTION":15.07507927,"ECCENTRICITY":0.0002705,"INCLINATION":53.0547,"RA_OF_ASC_NODE":9.0506,"ARG_OF_PERICENTER":30.2956,"MEAN_ANOMALY":329.8189,"EPHEMERIS_TYPE":0,"CLASSIFICATION_TYPE":"U","NORAD_CAT_ID":45754,"ELEMENT_SET_NO":999,"REV_AT_EPOCH":29927,"BSTAR":0.00033041,"MEAN_MOTION_DOT":4.79e-5,"MEAN_MOTION_DDOT":0},{"OBJECT_NAME":"STARLINK-1478","OBJECT_ID":"2020-038AB","EPOCH":"2025-11-15T09:58:58.054080","MEAN_MOTION":15.06374947,"ECCENTRICITY":0.0001587,"INCLINATION":53.0543,"RA_OF_ASC_NODE":9.6107,"ARG_OF_PERICENTER":94.2915,"MEAN_ANOMALY":265.8255,"EPHEMERIS_TYPE":0,"CLASSIFICATION_TYPE":"U","NORAD_CAT_ID":45755,"ELEMENT_SET_NO":999,"REV_AT_EPOCH":29924,"BSTAR":0.00065054,"MEAN_MOTION_DOT":9.415e-5,"MEAN_MOTION_DDOT":0},{"OBJECT_NAME":"STARLINK-1484","OBJECT_ID":"2020-038AC","EPOCH":"2025-11-15T20:55:33.680640","MEAN_MOTION":15.64319461,"ECCENTRICITY":0.000349,"INCLINATION":53.0156,"RA_OF_ASC_NODE":267.0279,"ARG_OF_PERICENTER":73.249,"MEAN_ANOMALY":286.8906,"EPHEMERIS_TYPE":0,"CLASSIFICATION_TYPE":"U","NORAD_CAT_ID":45756,"ELEMENT_SET_NO":999,"REV_AT_EPOCH":30072,"BSTAR":0.00084276,"MEAN_MOTION_DOT":0.00082373,"MEAN_MOTION_DDOT":0},{"OBJECT_NAME":"STARLINK-1493","OBJECT_ID":"2020-038AF","EPOCH":"2025-11-15T12:54:07.529760","MEAN_MOTION":15.06404884,"ECCENTRICITY":0.0001851,"INCLINATION":53.055,"RA_OF_ASC_NODE":9.0647,"ARG_OF_PERICENTER":97.2459,"MEAN_ANOMALY":262.8741,"EPHEMERIS_TYPE":0,"CLASSIFICATION_TYPE":"U","NORAD_CAT_ID":45759,"ELEMENT_SET_NO":999,"REV_AT_EPOCH":29926,"BSTAR":0.0004861,"MEAN_MOTION_DOT":6.967e-5,"MEAN_MOTION_DDOT":0}]
