STARLINK-1411           
1 45706U 20035BB  25319.85841022  .00052192  00000+0  11603-2 0  9993
2 45706  53.0523 169.5237 0001944 161.2842 198.8234 15.43177940302244
STARLINK-1423           
1 45710U 20035BF  25319.38464472  .00014061  00000+0  96097-3 0  9990
2 45710  53.0536 189.7563 0001498  77.3533 282.7623 15.06400702301920
STARLINK-1433           
1 45711U 20035BG  25318.83544139  .00014024  00000+0  95891-3 0  9999
2 45711  53.0530 192.2196 0001141  95.0481 265.0638 15.06384726301837
STARLINK-1434           
1 45712U 20035BH  25319.36788365  .00007971  00000+0  42092-3 0  9998
2 45712  53.0482 184.9937 0007076 106.4502 253.7269 15.16379255301992
STARLINK-1465           
1 45731U 20038B   25319.46572404  .00004496  00000+0  32062-3 0  9993
2 45731  53.0561  29.3889 0001480 117.9604 242.1534 15.06388128298970
STARLINK-1471           
1 45735U 20038F   25319.72721073  .00024622  00000+0  58115-3 0  9994
2 45735  53.0511 324.7440 0000997  69.7113 290.3998 15.41755200299917
STARLINK-1474           
1 45738U 20038J   25319.91671295  .00171126  00000+0  13691-2 0  9999
2 45738  53.0355 278.1397 0004322  51.5872 124.0561 15.70037159  5918
STARLINK-1475           
1 45739U 20038K   25319.91671295  .00249376  00000+0  91257-3 0  9998
2 45739  53.0466 243.1564 0006820  92.1421 104.6250 15.87144582  5989
STARLINK-1480           
1 45741U 20038M   25319.57997889  .00013279  00000+0  90843-3 0  9994
2 45741  53.0554  28.8765 0001548  84.1852 275.9313 15.06410910299004
STARLINK-1500           
1 45744U 20038Q   25319.54308641  .00024846  00000+0  89463-3 0  9994
2 45744  53.0408   5.5393 0001356 276.2148  83.8696 15.28457109299323
STARLINK-1504           
1 45746U 20038S   25319.29340944  .00022962  00000+0  54527-3 0  9990
2 45746  53.0289 329.9093 0002001 333.0209  27.0690 15.41613805299797
STARLINK-1506           
1 45747U 20038T   25319.56191582  .00010563  00000+0  47167-3 0  9999
2 45747  53.0650   8.6619 0002178 310.6448  49.4359 15.21902141299282
STARLINK-1464           
1 45751U 20038X   25319.44914519  .00008407  00000+0  58269-3 0  9993
2 45751  53.0560   9.4654 0001419 102.3014 257.8134 15.06393294299267
STARLINK-1477           
1 45754U 20038AA  25319.52239919  .00004790  00000+0  33041-3 0  9991
2 45754  53.0547   9.0506 0002705  30.2956 329.8189 15.07507927299272
STARLINK-1478           
1 45755U 20038AB  25319.41594970  .00009415  00000+0  65054-3 0  9999
2 45755  53.0543   9.6107 0001587  94.2915 265.8255 15.06374947299247
STARLINK-1484           
1 45756U 20038AC  25319.87191760  .00082373  00000+0  84276-3 0  9991
2 45756  53.0156 267.0279 0003490  73.2490 286.8906 15.64319461300724
STARLINK-1493           
1 45759U 20038AF  25319.53758715  .00006967  00000+0  48610-3 0  9993
2 45759  53.0550   9.0647 0001851  97.2459 262.8741 15.06404884299265
